[
    {
        "Altitude(m)": 622200.1465137971,
        "Argument of Periapsis(deg)": 0.0,
        "Eccentricity": 0.0,
        "Inclination(deg)": 60.0,
        "Latitude(deg)": -52.16264673092992,
        "Longitude(deg)": -112.63930709469798,
        "Mean Anomaly(deg)": 294.5455,
        "RAAN(deg)": 35.0,
        "Satellite Name": "Test1 172",
        "Satellite Number": 172,
        "Semi-Major Axis(m)": 6980739.136638005,
        "Time(s)": 0
    },
    {
        "Altitude(m)": 622058.3146098256,
        "Argument of Periapsis(deg)": 0.00010418945913296404,
        "Eccentricity": 0.0,
        "Inclination(deg)": 60.0,
        "Latitude(deg)": -51.799397006307416,
        "Longitude(deg)": -111.87124659197107,
        "Mean Anomaly(deg)": 295.1656061454619,
        "RAAN(deg)": 34.99957995086025,
        "Satellite Name": "Test1 172",
        "Satellite Number": 172,
        "Semi-Major Axis(m)": 6980739.136638005,
        "Time(s)": 10
    }
]